{
    "type": "Feature",
    "stac_version": "1.1.0",
    "stac_extensions": [
        "https://stac-extensions.github.io/scientific/v1.0.0/schema.json",
        "https://stac-extensions.github.io/projection/v2.0.0/schema.json"
    ],
    "id": "chuk-geospatial-elevation-v1.1",
    "geometry": {
        "type": "Polygon",
        "coordinates": [
            [
                [
                    -15.37247,
                    47.08979
                ],
                [
                    4.74876,
                    47.08979
                ],
                [
                    4.74876,
                    61.13232
                ],
                [
                    -15.37247,
                    61.13232
                ],
                [
                    -15.37247,
                    47.08979
                ]
            ]
        ]
    },
    "bbox": [
        -15.37247,
        47.08979,
        4.74876,
        61.13232
    ],
    "properties": {
        "sci:doi": "10.5285/b766867ceadb409da64d480bdbe4057d",
        "sci:publications": [
            {
                "doi": "10.5285/b766867ceadb409da64d480bdbe4057d",
                "citation": "Lloyd-Hughes, B.; Griffiths, G.; Roesch, M. (2025): EOCIS: Geospatial Information Files V1.1. NERC EDS Centre for Environmental Data Analysis, 27 August 2025."
            }
        ],
        "institution": "EOCIS UK",
        "project": "UK Earth Observation Climate Information Service (EOCIS)",
        "license": "cc-by-4.0",
        "resolution": "100m",
        "title": "EOCIS Geospatial Information - Elevation",
        "description": "Elevation data on the CHUK grid derived from the Copernicus Global 30m DEM data",
        "datetime": "2024-12-12T12:00:00Z",
        "proj:code": "EPSG:27700"
    },
    "links": [
    ],
    "assets": {
        "EOCIS-CHUK_GEOSPATIAL_INFORMATION-L4-ELEVATION-MERGED-2023-fv1.0": {
            "href": "https://eocis.org/data/chuk_geospatial/EOCIS-CHUK_GEOSPATIAL_INFORMATION-L4-ELEVATION-MERGED-2023-fv1.0.geotiff",
            "type": "image/geotiff",
            "roles": [
                "data"
            ]
        },
        "thumbnail": {
            "href": "https://eocis.org/data/chuk_geospatial/EOCIS-CHUK_GEOSPATIAL_INFORMATION-L4-ELEVATION-MERGED-2023-fv1.0.png",
            "type": "image/png",
            "roles": [
              "thumbnail"
            ]
        }
    },
    "collection": "eocis-chuk-geospatial"
}